ASTROCAST 0.1           
1 43798U 18099AS  26202.26809312  .00031583  00000+0  52969-3 0  9994
2 43798  97.4362 281.8841 0005297 112.2277 247.9537 15.51753145419717
ASTROCAST-0402          
1 55109U 23001DE  26201.81588910  .00010447  00000+0  37222-3 0  9991
2 55109  97.5575 295.5301 0006648 119.3554 240.8351 15.29100455149679
ASTROCAST-0401          
1 55110U 23001DF  26202.22579379  .00014146  00000+0  50889-3 0  9992
2 55110  97.5557 295.7468 0009399  90.3099 269.9218 15.28682012196405
ASTROCAST-0403          
1 55111U 23001DG  26202.16210653  .00019307  00000+0  61610-3 0  9991
2 55111  97.5613 297.0422 0005241 191.5392 168.5730 15.32531135149760
ASTROCAST-0404          
1 55112U 23001DH  26201.78481995  .00004709  00000+0  17063-3 0  9991
2 55112  97.5662 296.4362 0005532 219.5046 140.5791 15.28874248149667
